SL-16 R/B               
1 25400U 98043G   25342.79899933  .00000194  00000+0  10033-3 0  9991
2 25400  98.8118 290.5951 0008837 279.5465  80.4715 14.26024291426034
SL-16 R/B               
1 25407U 98045B   25342.80921131 -.00000089  00000+0 -21027-4 0  9999
2 25407  71.0122  12.6930 0007128 183.9466 176.1603 14.16176127414233
ISS (ZARYA)             
1 25544U 98067A   25342.54239145  .00012445  00000+0  23028-3 0  9992
2 25544  51.6307 163.2617 0003394 220.7658 139.3077 15.49420853542203
CZ-4B R/B               
1 25732U 99025C   25342.73784648  .00000164  00000+0  10027-3 0  9990
2 25732  98.6773  24.1072 0036172 245.8055 226.2503 14.18242225375270
OKEAN-O                 
1 25860U 99039A   25342.73348178  .00001550  00000+0  21112-3 0  9998
2 25860  97.9607  38.4697 0000798  88.8473 271.2830 14.80151839420931
SL-16 R/B               
1 25861U 99039B   25342.73241306  .00001306  00000+0  17286-3 0  9990
2 25861  98.0130  36.8832 0014608 187.7221 172.3768 14.81578662423395
DELTA 2 R/B             
1 25876U 99041E   25342.60659299  .00001802  00000+0  32940-3 0  9994
2 25876  51.7620 304.9450 0504751  79.5845 286.1549 14.11385886350161
HELIOS 1B               
1 25977U 99064A   25342.69951190  .00003504  00000+0  39526-3 0  9993
2 25977  98.1753 237.2453 0001915  48.0899 312.0480 14.87257636671736
TERRA                   
1 25994U 99068A   25342.83543947  .00001029  00000+0  21908-3 0  9994
2 25994  97.9753  34.6632 0003530 105.6119 343.6228 14.60946590381812
SL-16 R/B               
1 26070U 00006B   25342.58909205  .00000102  00000+0  76315-4 0  9993
2 26070  71.0032 289.3842 0018298 314.3936  45.5688 14.15810556335668
TITAN 4B R/B            
1 26474U 00047B   25342.83171156  .00005959  00000+0  38022-3 0  9997
2 26474  67.9905 295.8301 0039238 149.3578 210.9875 15.08736651379206
ENVISAT                 
1 27386U 02009A   25342.87249421  .00000312  00000+0  11500-3 0  9995
2 27386  98.3594 293.7112 0001143  81.8098 338.8518 14.38997309246117
