CCSDS_OMM_VERS = 2.0
CREATION_DATE  = 
ORIGINATOR     = 

OBJECT_NAME    = SL-16 R/B
OBJECT_ID      = 1998-043G
CENTER_NAME    = EARTH
REF_FRAME      = TEME
TIME_SYSTEM    = UTC
MEAN_ELEMENT_THEORY = SGP/SGP4

EPOCH          = 2025-12-08T19:10:33.542112
MEAN_MOTION    = 14.26024291
ECCENTRICITY   = .0008837
INCLINATION    = 98.8118
RA_OF_ASC_NODE = 290.5951
ARG_OF_PERICENTER = 279.5465
MEAN_ANOMALY   = 80.4715

EPHEMERIS_TYPE = 0
CLASSIFICATION_TYPE = U
NORAD_CAT_ID   = 25400
ELEMENT_SET_NO = 999
REV_AT_EPOCH   = 42603
BSTAR          = .10033E-3
MEAN_MOTION_DOT = .194E-5
MEAN_MOTION_DDOT = 0

CCSDS_OMM_VERS = 2.0
CREATION_DATE  = 
ORIGINATOR     = 

OBJECT_NAME    = SL-16 R/B
OBJECT_ID      = 1998-045B
CENTER_NAME    = EARTH
REF_FRAME      = TEME
TIME_SYSTEM    = UTC
MEAN_ELEMENT_THEORY = SGP/SGP4

EPOCH          = 2025-12-08T19:25:15.857184
MEAN_MOTION    = 14.16176127
ECCENTRICITY   = .0007128
INCLINATION    = 71.0122
RA_OF_ASC_NODE = 12.6930
ARG_OF_PERICENTER = 183.9466
MEAN_ANOMALY   = 176.1603

EPHEMERIS_TYPE = 0
CLASSIFICATION_TYPE = U
NORAD_CAT_ID   = 25407
ELEMENT_SET_NO = 999
REV_AT_EPOCH   = 41423
BSTAR          = -.21027E-4
MEAN_MOTION_DOT = -.89E-6
MEAN_MOTION_DDOT = 0

CCSDS_OMM_VERS = 2.0
CREATION_DATE  = 
ORIGINATOR     = 

OBJECT_NAME    = ISS (ZARYA)
OBJECT_ID      = 1998-067A
CENTER_NAME    = EARTH
REF_FRAME      = TEME
TIME_SYSTEM    = UTC
MEAN_ELEMENT_THEORY = SGP/SGP4

EPOCH          = 2025-12-08T13:01:02.621280
MEAN_MOTION    = 15.49420853
ECCENTRICITY   = .0003394
INCLINATION    = 51.6307
RA_OF_ASC_NODE = 163.2617
ARG_OF_PERICENTER = 220.7658
MEAN_ANOMALY   = 139.3077

EPHEMERIS_TYPE = 0
CLASSIFICATION_TYPE = U
NORAD_CAT_ID   = 25544
ELEMENT_SET_NO = 999
REV_AT_EPOCH   = 54220
BSTAR          = .23028E-3
MEAN_MOTION_DOT = .12445E-3
MEAN_MOTION_DDOT = 0

CCSDS_OMM_VERS = 2.0
CREATION_DATE  = 
ORIGINATOR     = 

OBJECT_NAME    = CZ-4B R/B
OBJECT_ID      = 1999-025C
CENTER_NAME    = EARTH
REF_FRAME      = TEME
TIME_SYSTEM    = UTC
MEAN_ELEMENT_THEORY = SGP/SGP4

EPOCH          = 2025-12-08T17:42:29.935872
MEAN_MOTION    = 14.18242225
ECCENTRICITY   = .0036172
INCLINATION    = 98.6773
RA_OF_ASC_NODE = 24.1072
ARG_OF_PERICENTER = 245.8055
MEAN_ANOMALY   = 226.2503

EPHEMERIS_TYPE = 0
CLASSIFICATION_TYPE = U
NORAD_CAT_ID   = 25732
ELEMENT_SET_NO = 999
REV_AT_EPOCH   = 37527
BSTAR          = .10027E-3
MEAN_MOTION_DOT = .164E-5
MEAN_MOTION_DDOT = 0

CCSDS_OMM_VERS = 2.0
CREATION_DATE  = 
ORIGINATOR     = 

OBJECT_NAME    = OKEAN-O
OBJECT_ID      = 1999-039A
CENTER_NAME    = EARTH
REF_FRAME      = TEME
TIME_SYSTEM    = UTC
MEAN_ELEMENT_THEORY = SGP/SGP4

EPOCH          = 2025-12-08T17:36:12.825792
MEAN_MOTION    = 14.80151839
ECCENTRICITY   = .0000798
INCLINATION    = 97.9607
RA_OF_ASC_NODE = 38.4697
ARG_OF_PERICENTER = 88.8473
MEAN_ANOMALY   = 271.2830

EPHEMERIS_TYPE = 0
CLASSIFICATION_TYPE = U
NORAD_CAT_ID   = 25860
ELEMENT_SET_NO = 999
REV_AT_EPOCH   = 42093
BSTAR          = .21112E-3
MEAN_MOTION_DOT = .155E-4
MEAN_MOTION_DDOT = 0

CCSDS_OMM_VERS = 2.0
CREATION_DATE  = 
ORIGINATOR     = 

OBJECT_NAME    = SL-16 R/B
OBJECT_ID      = 1999-039B
CENTER_NAME    = EARTH
REF_FRAME      = TEME
TIME_SYSTEM    = UTC
MEAN_ELEMENT_THEORY = SGP/SGP4

EPOCH          = 2025-12-08T17:34:40.488384
MEAN_MOTION    = 14.81578662
ECCENTRICITY   = .0014608
INCLINATION    = 98.0130
RA_OF_ASC_NODE = 36.8832
ARG_OF_PERICENTER = 187.7221
MEAN_ANOMALY   = 172.3768

EPHEMERIS_TYPE = 0
CLASSIFICATION_TYPE = U
NORAD_CAT_ID   = 25861
ELEMENT_SET_NO = 999
REV_AT_EPOCH   = 42339
BSTAR          = .17286E-3
MEAN_MOTION_DOT = .1306E-4
MEAN_MOTION_DDOT = 0

CCSDS_OMM_VERS = 2.0
CREATION_DATE  = 
ORIGINATOR     = 

OBJECT_NAME    = DELTA 2 R/B
OBJECT_ID      = 1999-041E
CENTER_NAME    = EARTH
REF_FRAME      = TEME
TIME_SYSTEM    = UTC
MEAN_ELEMENT_THEORY = SGP/SGP4

EPOCH          = 2025-12-08T14:33:29.634336
MEAN_MOTION    = 14.11385886
ECCENTRICITY   = .0504751
INCLINATION    = 51.7620
RA_OF_ASC_NODE = 304.9450
ARG_OF_PERICENTER = 79.5845
MEAN_ANOMALY   = 286.1549

EPHEMERIS_TYPE = 0
CLASSIFICATION_TYPE = U
NORAD_CAT_ID   = 25876
ELEMENT_SET_NO = 999
REV_AT_EPOCH   = 35016
BSTAR          = .3294E-3
MEAN_MOTION_DOT = .1802E-4
MEAN_MOTION_DDOT = 0

CCSDS_OMM_VERS = 2.0
CREATION_DATE  = 
ORIGINATOR     = 

OBJECT_NAME    = HELIOS 1B
OBJECT_ID      = 1999-064A
CENTER_NAME    = EARTH
REF_FRAME      = TEME
TIME_SYSTEM    = UTC
MEAN_ELEMENT_THEORY = SGP/SGP4

EPOCH          = 2025-12-08T16:47:17.828160
MEAN_MOTION    = 14.87257636
ECCENTRICITY   = .0001915
INCLINATION    = 98.1753
RA_OF_ASC_NODE = 237.2453
ARG_OF_PERICENTER = 48.0899
MEAN_ANOMALY   = 312.0480

EPHEMERIS_TYPE = 0
CLASSIFICATION_TYPE = U
NORAD_CAT_ID   = 25977
ELEMENT_SET_NO = 999
REV_AT_EPOCH   = 67173
BSTAR          = .39526E-3
MEAN_MOTION_DOT = .3504E-4
MEAN_MOTION_DDOT = 0

CCSDS_OMM_VERS = 2.0
CREATION_DATE  = 
ORIGINATOR     = 

OBJECT_NAME    = TERRA
OBJECT_ID      = 1999-068A
CENTER_NAME    = EARTH
REF_FRAME      = TEME
TIME_SYSTEM    = UTC
MEAN_ELEMENT_THEORY = SGP/SGP4

EPOCH          = 2025-12-08T20:03:01.970208
MEAN_MOTION    = 14.60946590
ECCENTRICITY   = .000353
INCLINATION    = 97.9753
RA_OF_ASC_NODE = 34.6632
ARG_OF_PERICENTER = 105.6119
MEAN_ANOMALY   = 343.6228

EPHEMERIS_TYPE = 0
CLASSIFICATION_TYPE = U
NORAD_CAT_ID   = 25994
ELEMENT_SET_NO = 999
REV_AT_EPOCH   = 38181
BSTAR          = .21908E-3
MEAN_MOTION_DOT = .1029E-4
MEAN_MOTION_DDOT = 0

CCSDS_OMM_VERS = 2.0
CREATION_DATE  = 
ORIGINATOR     = 

OBJECT_NAME    = SL-16 R/B
OBJECT_ID      = 2000-006B
CENTER_NAME    = EARTH
REF_FRAME      = TEME
TIME_SYSTEM    = UTC
MEAN_ELEMENT_THEORY = SGP/SGP4

EPOCH          = 2025-12-08T14:08:17.553120
MEAN_MOTION    = 14.15810556
ECCENTRICITY   = .0018298
INCLINATION    = 71.0032
RA_OF_ASC_NODE = 289.3842
ARG_OF_PERICENTER = 314.3936
MEAN_ANOMALY   = 45.5688

EPHEMERIS_TYPE = 0
CLASSIFICATION_TYPE = U
NORAD_CAT_ID   = 26070
ELEMENT_SET_NO = 999
REV_AT_EPOCH   = 33566
BSTAR          = .76315E-4
MEAN_MOTION_DOT = .102E-5
MEAN_MOTION_DDOT = 0

CCSDS_OMM_VERS = 2.0
CREATION_DATE  = 
ORIGINATOR     = 

OBJECT_NAME    = TITAN 4B R/B
OBJECT_ID      = 2000-047B
CENTER_NAME    = EARTH
REF_FRAME      = TEME
TIME_SYSTEM    = UTC
MEAN_ELEMENT_THEORY = SGP/SGP4

EPOCH          = 2025-12-08T19:57:39.878784
MEAN_MOTION    = 15.08736651
ECCENTRICITY   = .0039238
INCLINATION    = 67.9905
RA_OF_ASC_NODE = 295.8301
ARG_OF_PERICENTER = 149.3578
MEAN_ANOMALY   = 210.9875

EPHEMERIS_TYPE = 0
CLASSIFICATION_TYPE = U
NORAD_CAT_ID   = 26474
ELEMENT_SET_NO = 999
REV_AT_EPOCH   = 37920
BSTAR          = .38022E-3
MEAN_MOTION_DOT = .5959E-4
MEAN_MOTION_DDOT = 0

CCSDS_OMM_VERS = 2.0
CREATION_DATE  = 
ORIGINATOR     = 

OBJECT_NAME    = ENVISAT
OBJECT_ID      = 2002-009A
CENTER_NAME    = EARTH
REF_FRAME      = TEME
TIME_SYSTEM    = UTC
MEAN_ELEMENT_THEORY = SGP/SGP4

EPOCH          = 2025-12-08T20:56:23.499744
MEAN_MOTION    = 14.38997309
ECCENTRICITY   = .0001143
INCLINATION    = 98.3594
RA_OF_ASC_NODE = 293.7112
ARG_OF_PERICENTER = 81.8098
MEAN_ANOMALY   = 338.8518

EPHEMERIS_TYPE = 0
CLASSIFICATION_TYPE = U
NORAD_CAT_ID   = 27386
ELEMENT_SET_NO = 999
REV_AT_EPOCH   = 24611
BSTAR          = .115E-3
MEAN_MOTION_DOT = .312E-5
MEAN_MOTION_DDOT = 0

